GSAT0101 (PRN E11)      
1 37846U 11060A   22043.30850835 -.00000065  00000+0  00000+0 0  9999
2 37846  56.9505  24.7385 0003793 335.7298  24.2541  1.70475208 64213
GSAT0102 (PRN E12)      
1 37847U 11060B   22043.51442226 -.00000064  00000+0  00000+0 0  9993
2 37847  56.9514  24.7323 0005398 318.1247 214.7438  1.70475503 64093
GSAT0103 (PRN E19)      
1 38857U 12055A   22043.93539179 -.00000017  00000+0  00000+0 0  9998
2 38857  55.1028 145.1231 0003430 249.6992 110.2557  1.70473674 57981
GSAT0104 (PRN E20)      
1 38858U 12055B   22043.90571113 -.00000017  00000+0  00000+0 0  9990
2 38858  55.1031 145.1254 0001343 215.7979 144.1847  1.70473932 57986
GSAT0201 (PRN E18)      
1 40128U 14050A   22044.23935131 -.00000097  00000+0  00000+0 0  9999
2 40128  50.3579 337.2330 1631009 119.6364 257.5996  1.85519451 48911
GSAT0202 (PRN E14)      
1 40129U 14050B   22040.18883163 -.00000122  00000+0  00000+0 0  9996
2 40129  50.3870 336.4511 1628369 120.3042 256.8092  1.85519933 51003
GSAT0203 (PRN E26)      
1 40544U 15017A   22042.50313786 -.00000068  00000+0  00000+0 0  9997
2 40544  56.7452  24.8107 0004902 273.9568  85.9899  1.70476042 42156
GSAT0204 (PRN E22)      
1 40545U 15017B   22043.92889764 -.00000063  00000+0  00000+0 0  9994
2 40545  56.7518  24.7837 0004185 264.8215  95.1318  1.70475704  5220
GSAT0205 (PRN E24)      
1 40889U 15045A   22043.69622302  .00000055  00000+0  00000+0 0  9993
2 40889  55.7054 265.4080 0006319  23.8932 336.2082  1.70475085 39988
GSAT0206 (PRN E30)      
1 40890U 15045B   22042.15704593  .00000047  00000+0  00000+0 0  9999
2 40890  55.7058 265.4466 0004543  19.6106 340.4742  1.70473389 39980
GSAT0209 (PRN E09)      
1 41174U 15079A   22041.74563228 -.00000021  00000+0  00000+0 0  9997
2 41174  55.1185 144.8859 0003121 308.4664  51.4960  1.70473754 37712
GSAT0208 (PRN E08)      
1 41175U 15079B   22042.55185715 -.00000021  00000+0  00000+0 0  9999
2 41175  55.1169 144.8623 0002358 307.3362  52.6325  1.70473747 38146
GSAT0211 (PRN E02)      
1 41549U 16030A   22042.67145276  .00000050  00000+0  00000+0 0  9994
2 41549  55.8506 265.3521 0004587 354.6607   5.4036  1.70474832 35623
GSAT0210 (PRN E01)      
1 41550U 16030B   22042.96415324  .00000052  00000+0  00000+0 0  9994
2 41550  55.8499 265.3455 0002842 337.3145  22.7431  1.70474957 35628
GSAT0207 (PRN E07)      
1 41859U 16069A   22043.21124103 -.00000020  00000+0  00000+0 0  9995
2 41859  54.7783 145.0578 0003298 288.4706  71.4837  1.70473687 32367
GSAT0212 (PRN E03)      
1 41860U 16069B   22044.23782865 -.00000017  00000+0  00000+0 0  9991
2 41860  54.7761 145.0270 0002010 321.2956  38.6826  1.70473760 32633
GSAT0213 (PRN E04)      
1 41861U 16069C   22043.43013400 -.00000019  00000+0  00000+0 0  9997
2 41861  54.7782 145.0544 0003297 259.3311 100.6223  1.70473748 32485
GSAT0214 (PRN E05)      
1 41862U 16069D   22042.99064704 -.00000020  00000+0  00000+0 0  9993
2 41862  54.7767 145.0613 0002348 260.2195  99.7439  1.70473840 32607
GSAT0215 (PRN E21)      
1 43055U 17079A   22044.06811117  .00000057  00000+0  00000+0 0  9998
2 43055  55.8251 265.1479 0002236 344.5226  15.5433  1.70474102 25967
GSAT0216 (PRN E25)      
1 43056U 17079B   22039.66772546  .00000031  00000+0  00000+0 0  9993
2 43056  55.8282 265.2691 0003506 316.2524  43.7785  1.70474194 25905
GSAT0217 (PRN E27)      
1 43057U 17079C   22043.99404829  .00000057  00000+0  00000+0 0  9999
2 43057  55.8238 265.1495 0003747 333.6816  26.3720  1.70474138 25962
GSAT0218 (PRN E31)      
1 43058U 17079D   22043.62746688  .00000056  00000+0  00000+0 0  9991
2 43058  55.8243 265.1571 0003576 308.2590  51.7807  1.70474179 25986
GSAT0221 (PRN E15)      
1 43564U 18060A   22044.11197194 -.00000062  00000+0  00000+0 0  9999
2 43564  57.1290  24.5505 0005660 286.7724  73.1658  1.70475833 22149
GSAT0222 (PRN E33)      
1 43565U 18060B   22043.15864528 -.00000065  00000+0  00000+0 0  9998
2 43565  57.1307  24.5767 0005423 293.2707  66.6739  1.70475857 22176
GSAT0219 (PRN E36)      
1 43566U 18060C   22043.37922165 -.00000064  00000+0  00000+0 0  9994
2 43566  57.1313  24.5726 0005085 294.5758  65.3727  1.70475864 22152
GSAT0220 (PRN E13)      
1 43567U 18060D   22043.59924557 -.00000064  00000+0  00000+0 0  9996
2 43567  57.1312  24.5670 0005262 290.1914  69.7531  1.70475946 22144
GSAT0223                
1 49809U 21116A   22043.74492126 -.00000064  00000+0  00000+0 0  9996
2 49809  57.1243  24.4618 0002398 257.5994 281.6754  1.70476123  1153
GSAT0224                
1 49810U 21116B   22044.44834862 -.00000062  00000+0  00000+0 0  9991
2 49810  57.1254  24.4410 0001970 274.3978  89.0804  1.70476054  1194
